,City,Country Code,Filename,Lat,Long
0,ABU DHABI,ARE,ARE_Abu.Dhabi.412170_IWEC.epw,24.43,54.65
0,BOGRA,BGD,BGD_Bogra.418830_SWERA.epw,24.85,89.37
0,Chittagong/Patenga (CI,BGD,BGD_Chittagong-Patenga.419780_SWERA.epw,22.27,91.82
0,COX'S_BAZAR,BGD,BGD_Coxs.Bazar.419920_SWERA.epw,21.43,91.97
0,DHAKA/TEJGAON_(MIL),BGD,BGD_Dhaka.419230_SWERA.epw,23.77,90.38
0,ISHURDI,BGD,BGD_Ishurdi.419070_SWERA.epw,24.13,89.05
0,JESSORE_(CIV/MIL),BGD,BGD_Jessore.419360_SWERA.epw,23.18,89.17
0,RANGPUR,BGD,BGD_Rangpur.418590_SWERA.epw,25.73,89.23
0,SYLHET_OSMANI,BGD,BGD_Sylhet.418910_SWERA.epw,24.90,91.88
0,Anqing,CHN,CHN_Anhui.Anqing.584240_CSWD.epw,30.53,117.05
0,Bengbu,CHN,CHN_Anhui.Bengbu.582210_CSWD.epw,32.95,117.38
0,Boxian,CHN,CHN_Anhui.Boxian.581020_CSWD.epw,33.87,115.77
0,Dongcheng,CHN,CHN_Anhui.Dongcheng.583190_CSWD.epw,31.07,116.95
0,Hefei,CHN,CHN_Anhui.Hefei.583210_CSWD.epw,31.87,117.23
0,HEFEI/LUOGANG,CHN,CHN_Anhui.Hefei.583210_SWERA.epw,31.87,117.23
0,Huoshan,CHN,CHN_Anhui.Huoshan.583140_CSWD.epw,31.40,116.32
0,Shouxian,CHN,CHN_Anhui.Shouxian.582150_CSWD.epw,32.55,116.78
0,Tunxi,CHN,CHN_Anhui.Tunxi.585310_CSWD.epw,29.72,118.28
0,Beijing,CHN,CHN_Beijing.Beijing.545110_CSWD.epw,39.80,116.47
0,BEIJING,CHN,CHN_Beijing.Beijing.545110_IWEC.epw,39.80,116.47
0,BEIJING/PEKING,CHN,CHN_Beijing.Beijing.545110_SWERA.epw,39.93,116.28
0,Miyun,CHN,CHN_Beijing.Miyun.544160_CSWD.epw,40.38,116.87
0,Chongqing Shapingba,CHN,CHN_Chongqing.Chongqing.Shapingba.575160_CSWD.epw,29.58,106.47
0,CHONGQING/CHUNGKING,CHN,CHN_Chongqing.Chongqing.Shapingba.575160_SWERA.epw,29.52,106.48
0,Youyang,CHN,CHN_Chongqing.Youyang.576330_CSWD.epw,28.83,108.77
0,Congwu,CHN,CHN_Fujian.Congwu.591330_CSWD.epw,24.90,118.92
0,Fuzhou,CHN,CHN_Fujian.Fuzhou.588470_CSWD.epw,26.08,119.28
0,Jianou,CHN,CHN_Fujian.Jianou.587370_CSWD.epw,27.05,118.32
0,Nanping,CHN,CHN_Fujian.Nanping.588340_CSWD.epw,26.65,118.17
0,Shanghang,CHN,CHN_Fujian.Shanghang.589180_CSWD.epw,25.05,116.42
0,Xiamen,CHN,CHN_Fujian.Xiamen.591340_CSWD.epw,24.48,118.07
0,Yongan,CHN,CHN_Fujian.Yongan.589210_CSWD.epw,25.97,117.35
0,Dunhuang,CHN,CHN_Gansu.Dunhuang.524180_CSWD.epw,40.15,94.68
0,Hezuo,CHN,CHN_Gansu.Hezuo.560800_CSWD.epw,35.00,102.90
0,Jiuquan,CHN,CHN_Gansu.Jiuquan.525330_CSWD.epw,39.77,98.48
0,Lanzhou,CHN,CHN_Gansu.Lanzhou.528890_CSWD.epw,36.05,103.88
0,LANZHOU,CHN,CHN_Gansu.Lanzhou.528890_IWEC.epw,36.05,103.88
0,LANZHOU,CHN,CHN_Gansu.Lanzhou.528890_SWERA.epw,36.05,103.88
0,Minqin,CHN,CHN_Gansu.Minqin.526810_CSWD.epw,38.63,103.08
0,MINQIN,CHN,CHN_Gansu.Minqin.526810_SWERA.epw,38.77,103.10
0,Minxian,CHN,CHN_Gansu.Minxian.560930_CSWD.epw,34.43,104.02
0,Pingliang,CHN,CHN_Gansu.Pingliang.539150_CSWD.epw,35.55,106.67
0,Tianshui,CHN,CHN_Gansu.Tianshui.570060_CSWD.epw,34.58,105.75
0,Wudu,CHN,CHN_Gansu.Wudu.560960_CSWD.epw,33.40,104.92
0,WUDU,CHN,CHN_Gansu.Wudu.560960_SWERA.epw,33.40,104.92
0,Wushaoling,CHN,CHN_Gansu.Wushaoling.527870_CSWD.epw,37.20,102.87
0,Xifengzhen,CHN,CHN_Gansu.Xifengzhen.539230_CSWD.epw,35.73,107.63
0,Yumenzhen,CHN,CHN_Gansu.Yumenzhen.524360_CSWD.epw,40.27,97.03
0,YUMENZHEN,CHN,CHN_Gansu.Yumenzhen.524360_SWERA.epw,40.27,97.03
0,Yuzhong,CHN,CHN_Gansu.Yuzhong.529830_CSWD.epw,35.87,104.15
0,Dianbai,CHN,CHN_Guangdong.Dianbai.596640_CSWD.epw,21.50,111.00
0,Guangzhou,CHN,CHN_Guangdong.Guangzhou.592870_CSWD.epw,23.17,113.33
0,GUANGZHOU,CHN,CHN_Guangdong.Guangzhou.592870_IWEC.epw,23.13,113.32
0,Heyuan,CHN,CHN_Guangdong.Heyuan.592930_CSWD.epw,23.73,114.68
0,Nanxiong,CHN,CHN_Guangdong.Nanxiong.579960_CSWD.epw,25.13,114.32
0,Shantou,CHN,CHN_Guangdong.Shantou.593160_CSWD.epw,23.40,116.68
0,Shanwei,CHN,CHN_Guangdong.Shanwei.595010_CSWD.epw,22.80,115.37
0,Shaoguan,CHN,CHN_Guangdong.Shaoguan.590820_CSWD.epw,24.68,113.60
0,SHENZHEN,CHN,CHN_Guangdong.Shenzhen.594930_SWERA.epw,22.55,114.10
0,Yangjiang,CHN,CHN_Guangdong.Yangjiang.596630_CSWD.epw,21.87,111.97
0,Zhengcheng,CHN,CHN_Guangdong.Zhengcheng.592940_CSWD.epw,23.33,113.83
0,Baise,CHN,CHN_Guangxi.Zhuang.Baise.592110_CSWD.epw,23.90,106.60
0,Duan,CHN,CHN_Guangxi.Zhuang.Duan.590370_CSWD.epw,23.93,108.10
0,Guilin,CHN,CHN_Guangxi.Zhuang.Guilin.579570_CSWD.epw,25.32,110.30
0,Guiping,CHN,CHN_Guangxi.Zhuang.Guiping.592540_CSWD.epw,23.40,110.08
0,Hechi,CHN,CHN_Guangxi.Zhuang.Hechi.590230_CSWD.epw,24.70,108.05
0,Lingshan,CHN,CHN_Guangxi.Zhuang.Lingshan.594460_CSWD.epw,22.42,109.30
0,Longzhou,CHN,CHN_Guangxi.Zhuang.Longzhou.594170_CSWD.epw,22.33,106.85
0,Nanning,CHN,CHN_Guangxi.Zhuang.Nanning.594310_CSWD.epw,22.63,108.22
0,Qinzhou,CHN,CHN_Guangxi.Zhuang.Qinzhou.596320_CSWD.epw,21.95,108.62
0,Wuzhou,CHN,CHN_Guangxi.Zhuang.Wuzhou.592650_CSWD.epw,23.48,111.30
0,Bijie,CHN,CHN_Guizhou.Bijie.577070_CSWD.epw,27.30,105.28
0,Guiyang,CHN,CHN_Guizhou.Guiyang.578160_CSWD.epw,26.58,106.73
0,GUIYANG,CHN,CHN_Guizhou.Guiyang.578160_SWERA.epw,26.58,106.72
0,Sansui,CHN,CHN_Guizhou.Sansui.578320_CSWD.epw,26.97,108.67
0,Tongzi,CHN,CHN_Guizhou.Tongzi.576060_CSWD.epw,28.13,106.83
0,Weining,CHN,CHN_Guizhou.Weining.566910_CSWD.epw,26.87,104.28
0,Xingyi,CHN,CHN_Guizhou.Xingyi.579020_CSWD.epw,25.43,105.18
0,Zunyi,CHN,CHN_Guizhou.Zunyi.577130_CSWD.epw,27.70,106.88
0,Dongfang,CHN,CHN_Hainan.Dongfang.598380_CSWD.epw,19.10,108.62
0,Haikou,CHN,CHN_Hainan.Haikou.597580_CSWD.epw,20.03,110.35
0,Qionghai,CHN,CHN_Hainan.Qionghai.598550_CSWD.epw,19.23,110.47
0,Chengde,CHN,CHN_Hebei.Chengde.544230_CSWD.epw,40.98,117.95
0,Fengning,CHN,CHN_Hebei.Fengning.543080_CSWD.epw,41.22,116.63
0,Huailai,CHN,CHN_Hebei.Huailai.544050_CSWD.epw,40.40,115.50
0,Leting,CHN,CHN_Hebei.Leting.545390_CSWD.epw,39.43,118.88
0,Raoyang,CHN,CHN_Hebei.Raoyang.546060_CSWD.epw,38.23,115.73
0,Shijiazhuang,CHN,CHN_Hebei.Shijiazhuang.536980_CSWD.epw,38.03,114.42
0,Xingtai,CHN,CHN_Hebei.Xingtai.537980_CSWD.epw,37.07,114.50
0,Zhangbei,CHN,CHN_Hebei.Zhangbei.533990_CSWD.epw,41.15,114.70
0,Anda,CHN,CHN_Heilongjiang.Anda.508540_CSWD.epw,46.38,125.32
0,Fujin,CHN,CHN_Heilongjiang.Fujin.507880_CSWD.epw,47.23,131.98
0,Fuyu,CHN,CHN_Heilongjiang.Fuyu.507420_CSWD.epw,47.78,124.48
0,Hailun,CHN,CHN_Heilongjiang.Hailun.507560_CSWD.epw,47.43,126.97
0,Harbin,CHN,CHN_Heilongjiang.Harbin.509530_CSWD.epw,45.75,126.77
0,HARBIN,CHN,CHN_Heilongjiang.Harbin.509530_IWEC.epw,45.72,126.68
0,HARBIN,CHN,CHN_Heilongjiang.Harbin.509530_SWERA.epw,45.75,126.77
0,Huma,CHN,CHN_Heilongjiang.Huma.503530_CSWD.epw,51.72,126.65
0,Jiamusi,CHN,CHN_Heilongjiang.Jiamusi.508730_CSWD.epw,46.82,130.28
0,Jixi,CHN,CHN_Heilongjiang.Jixi.509780_CSWD.epw,45.28,130.95
0,Keshan,CHN,CHN_Heilongjiang.Keshan.506580_CSWD.epw,48.05,125.88
0,Mohe,CHN,CHN_Heilongjiang.Mohe.501360_CSWD.epw,52.97,122.52
0,Mudanjiang,CHN,CHN_Heilongjiang.Mudanjiang.540940_CSWD.epw,44.57,129.60
0,Nenjiang,CHN,CHN_Heilongjiang.Nenjiang.505570_CSWD.epw,49.17,125.23
0,Qiqihar,CHN,CHN_Heilongjiang.Qiqihar.507450_CSWD.epw,47.38,123.92
0,Shangzhi,CHN,CHN_Heilongjiang.Shangzhi.509680_CSWD.epw,45.22,127.97
0,Suifenhe,CHN,CHN_Heilongjiang.Suifenhe.540960_CSWD.epw,44.38,131.17
0,Sunwu,CHN,CHN_Heilongjiang.Sunwu.505640_CSWD.epw,49.43,127.35
0,Tonghe,CHN,CHN_Heilongjiang.Tonghe.509630_CSWD.epw,45.97,128.73
0,Zhaozhou,CHN,CHN_Heilongjiang.Zhaozhou.509500_CSWD.epw,45.70,125.25
0,Anyang,CHN,CHN_Henan.Anyang.538980_CSWD.epw,36.05,114.40
0,Lushi,CHN,CHN_Henan.Lushi.570670_CSWD.epw,34.05,111.03
0,Nanyang,CHN,CHN_Henan.Nanyang.571780_CSWD.epw,33.03,112.58
0,Shangqiu,CHN,CHN_Henan.Shangqiu.580050_CSWD.epw,34.45,115.67
0,Xinyang,CHN,CHN_Henan.Xinyang.572970_CSWD.epw,32.13,114.05
0,Zhengzhou,CHN,CHN_Henan.Zhengzhou.570830_CSWD.epw,34.72,113.65
0,Zhumadian,CHN,CHN_Henan.Zhumadian.572900_CSWD.epw,33.00,114.02
0,HONG KONG,CHN,CHN_Hong.Kong.SAR.450070_CityUHK.epw,22.32,114.17
0,Exi,CHN,CHN_Hubei.Exi.574470_CSWD.epw,30.28,109.47
0,Laohekou,CHN,CHN_Hubei.Laohekou.572650_CSWD.epw,32.38,111.67
0,Macheng,CHN,CHN_Hubei.Macheng.573990_CSWD.epw,31.18,115.02
0,Wuhan,CHN,CHN_Hubei.Wuhan.574940_CSWD.epw,30.62,114.13
0,WUHAN/NANHU,CHN,CHN_Hubei.Wuhan.574940_SWERA.epw,30.62,114.13
0,Yichang,CHN,CHN_Hubei.Yichang.574610_CSWD.epw,30.70,111.30
0,Yunxi,CHN,CHN_Hubei.Yunxi.572510_CSWD.epw,33.00,110.42
0,Zhongxiang,CHN,CHN_Hubei.Zhongxiang.573780_CSWD.epw,31.17,112.57
0,Changde,CHN,CHN_Hunan.Changde.576620_CSWD.epw,29.05,111.68
0,Changning,CHN,CHN_Hunan.Changning.578740_CSWD.epw,26.42,112.40
0,Changsha,CHN,CHN_Hunan.Changsha.576870_CSWD.epw,28.22,112.92
0,CHANGSHA,CHN,CHN_Hunan.Changsha.576870_SWERA.epw,28.23,112.87
0,Jishou,CHN,CHN_Hunan.Jishou.576490_CSWD.epw,28.32,109.73
0,Lingling,CHN,CHN_Hunan.Lingling.578660_CSWD.epw,26.23,111.62
0,Nanxian,CHN,CHN_Hunan.Nanxian.575740_CSWD.epw,29.37,112.40
0,Shimen,CHN,CHN_Hunan.Shimen.575620_CSWD.epw,29.58,111.37
0,Wugang,CHN,CHN_Hunan.Wugang.578530_CSWD.epw,26.73,110.63
0,Zhijiang,CHN,CHN_Hunan.Zhijiang.577450_CSWD.epw,27.45,109.68
0,Zhuzhou,CHN,CHN_Hunan.Zhuzhou.577800_CSWD.epw,27.87,113.17
0,Dongtai,CHN,CHN_Jiangsu.Dongtai.582510_CSWD.epw,32.87,120.32
0,Ganyu,CHN,CHN_Jiangsu.Ganyu.580400_CSWD.epw,34.83,119.12
0,Huaiyang-Qingjiang,CHN,CHN_Jiangsu.Huaiyang-Qingjiang.581440_CSWD.epw,33.63,119.02
0,Lusi,CHN,CHN_Jiangsu.Lusi.582650_CSWD.epw,32.07,121.60
0,Nanjing,CHN,CHN_Jiangsu.Nanjing.582380_CSWD.epw,32.83,118.80
0,Xuzhou,CHN,CHN_Jiangsu.Xuzhou.580270_CSWD.epw,34.28,117.15
0,Ganzhou,CHN,CHN_Jiangxi.Ganzhou.579930_CSWD.epw,25.87,115.00
0,Jian,CHN,CHN_Jiangxi.Jian.577990_CSWD.epw,27.05,114.92
0,Jingdezhen,CHN,CHN_Jiangxi.Jingdezhen.585270_CSWD.epw,29.30,117.20
0,Nanchang,CHN,CHN_Jiangxi.Nanchang.586060_CSWD.epw,28.60,115.92
0,Nancheng,CHN,CHN_Jiangxi.Nancheng.587150_CSWD.epw,27.58,116.65
0,NANCHENG,CHN,CHN_Jiangxi.Nancheng.587150_SWERA.epw,27.58,116.65
0,NANJING/NANKING,CHN,CHN_Jiangxi.Nanjing.582380_SWERA.epw,32.00,118.80
0,Suichuan,CHN,CHN_Jiangxi.Suichuan.578960_CSWD.epw,26.33,114.50
0,Yichun,CHN,CHN_Jiangxi.Yichun.577930_CSWD.epw,27.80,114.38
0,Yushan,CHN,CHN_Jiangxi.Yushan.586340_CSWD.epw,28.68,118.33
0,Baicheng,CHN,CHN_Jilin.Baicheng.509360_CSWD.epw,45.63,122.83
0,Changchun,CHN,CHN_Jilin.Changchun.541610_CSWD.epw,43.90,125.22
0,Donggang,CHN,CHN_Jilin.Donggang.542840_CSWD.epw,42.10,127.57
0,Dunhua,CHN,CHN_Jilin.Dunhua.541860_CSWD.epw,43.37,128.20
0,Linjiang,CHN,CHN_Jilin.Linjiang.543740_CSWD.epw,41.00,126.92
0,Qian Gorlos,CHN,CHN_Jilin.Qian.Gorlos.509490_CSWD.epw,45.08,124.87
0,Siping,CHN,CHN_Jilin.Siping.541570_CSWD.epw,43.17,124.33
0,Yanji,CHN,CHN_Jilin.Yanji.542920_CSWD.epw,42.88,129.47
0,KASHI,CHN,CHN_Kinjiang.Uygar.Kashi.517090_SWERA.epw,39.47,75.98
0,KUQA,CHN,CHN_Kinjiang.Uygur.Kuqa.516440_SWERA.epw,41.72,82.95
0,YINING,CHN,CHN_Kinjiang.Uygur.Yining.514310_SWERA.epw,43.95,81.33
0,HOTAN,CHN,CHN_Kinjiang.Uyhur.Hotan.518280_SWERA.epw,37.13,79.93
0,Benxi,CHN,CHN_Liaoning.Benxi.543460_CSWD.epw,41.32,123.78
0,Chaoyang,CHN,CHN_Liaoning.Chaoyang.543240_CSWD.epw,41.55,120.45
0,Dalian,CHN,CHN_Liaoning.Dalian.546620_CSWD.epw,38.90,121.63
0,DALIAN/DAIREN/LUDA,CHN,CHN_Liaoning.Dalian.546620_SWERA.epw,38.90,121.63
0,Dandong,CHN,CHN_Liaoning.Dandong.544970_CSWD.epw,40.05,124.33
0,Jinzhou,CHN,CHN_Liaoning.Jinzhou.543370_CSWD.epw,41.68,121.12
0,Kuandian,CHN,CHN_Liaoning.Kuandian.544930_CSWD.epw,40.72,124.78
0,Shenyang,CHN,CHN_Liaoning.Shenyang.543420_CSWD.epw,41.73,123.45
0,SHENYANG,CHN,CHN_Liaoning.Shenyang.543420_IWEC.epw,41.78,123.48
0,Xingcheng,CHN,CHN_Liaoning.Xingcheng.544550_CSWD.epw,40.58,120.70
0,Xinmin,CHN,CHN_Liaoning.Xinmin.543330_CSWD.epw,41.98,122.83
0,Yingkou,CHN,CHN_Liaoning.Yingkou.544710_CSWD.epw,40.67,122.27
0,Zhangwu,CHN,CHN_Liaoning.Zhangwu.542360_CSWD.epw,42.42,122.53
0,Abag Qi Hot,CHN,CHN_Nei.Mongol.Abag.Qi.Hot.531920_CSWD.epw,44.02,114.95
0,Arxan,CHN,CHN_Nei.Mongol.Arxan.507270_CSWD.epw,47.17,119.93
0,Bailingmiao,CHN,CHN_Nei.Mongol.Bailingmiao.533520_CSWD.epw,41.70,110.43
0,BAILING-MIAO,CHN,CHN_Nei.Mongol.Bailingmiao.533520_SWERA.epw,41.70,110.43
0,Bairin Zuo Qi,CHN,CHN_Nei.Mongol.Bairin.Zuo.Qi.540270_CSWD.epw,43.98,119.40
0,Bayan Mod,CHN,CHN_Nei.Mongol.Bayan.Mod.524950_CSWD.epw,40.17,104.80
0,Bugt,CHN,CHN_Nei.Mongol.Bugt.506320_CSWD.epw,48.77,121.92
0,BUGT,CHN,CHN_Nei.Mongol.Bugt.506320_SWERA.epw,48.77,121.92
0,Chifeng,CHN,CHN_Nei.Mongol.Chifeng.542180_CSWD.epw,42.27,118.93
0,Dong Ujimqin Qi,CHN,CHN_Nei.Mongol.Dong.Ujimqin.Qi.509150_CSWD.epw,45.52,116.97
0,Dongsheng,CHN,CHN_Nei.Mongol.Dongsheng.535430_CSWD.epw,39.83,109.98
0,Duolun,CHN,CHN_Nei.Mongol.Duolun.542080_CSWD.epw,42.18,116.47
0,Ejin Qi,CHN,CHN_Nei.Mongol.Ejin.Qi.522670_CSWD.epw,41.95,101.07
0,EJIN_QI,CHN,CHN_Nei.Mongol.Ejin.Qi.522670_SWERA.epw,41.95,101.07
0,Erenhot,CHN,CHN_Nei.Mongol.Erenhot.530680_CSWD.epw,43.65,111.97
0,Hailar,CHN,CHN_Nei.Mongol.Hailar.505270_CSWD.epw,49.22,119.75
0,Hailisu,CHN,CHN_Nei.Mongol.Hailisu.532310_CSWD.epw,41.40,106.40
0,Haliut,CHN,CHN_Nei.Mongol.Haliut.533360_CSWD.epw,41.57,108.52
0,Hohhot,CHN,CHN_Nei.Mongol.Hohhot.534630_CSWD.epw,40.82,111.68
0,Huade,CHN,CHN_Nei.Mongol.Huade.533910_CSWD.epw,41.90,114.00
0,HUADE,CHN,CHN_Nei.Mongol.Huade.533910_SWERA.epw,41.90,114.00
0,Jartai,CHN,CHN_Nei.Mongol.Jartai.535020_CSWD.epw,39.78,105.75
0,JARTAI,CHN,CHN_Nei.Mongol.Jartai.535020_SWERA.epw,39.78,105.75
0,Jarud Qi,CHN,CHN_Nei.Mongol.Jarud.Qi.540260_CSWD.epw,44.57,120.90
0,Jurh,CHN,CHN_Nei.Mongol.Jurh.532760_CSWD.epw,42.40,112.90
0,Kailu,CHN,CHN_Nei.Mongol.Kailu.541340_CSWD.epw,43.60,121.28
0,Linxi,CHN,CHN_Nei.Mongol.Linxi.541150_CSWD.epw,43.60,118.07
0,LINXI,CHN,CHN_Nei.Mongol.Linxi.541150_SWERA.epw,43.60,118.07
0,Manzhouli,CHN,CHN_Nei.Mongol.Manzhouli.505140_CSWD.epw,49.57,117.43
0,Otog Qi,CHN,CHN_Nei.Mongol.Otog.Qi.535290_CSWD.epw,39.10,107.98
0,Solon,CHN,CHN_Nei.Mongol.Solon.508340_CSWD.epw,46.60,121.22
0,Tongliao,CHN,CHN_Nei.Mongol.Tongliao.541350_CSWD.epw,43.60,122.27
0,TONGLIAO,CHN,CHN_Nei.Mongol.Tongliao.541350_SWERA.epw,43.60,122.27
0,Tulihe,CHN,CHN_Nei.Mongol.Tulihe.504340_CSWD.epw,50.48,121.68
0,Xi Ujimqin Qi,CHN,CHN_Nei.Mongol.Xi.Ujimqin.Qi.540120_CSWD.epw,44.58,117.60
0,Xilinhot,CHN,CHN_Nei.Mongol.Xilinhot.541020_CSWD.epw,43.95,116.12
0,Guyuan,CHN,CHN_Ningxia.Hui.Guyuan.538170_CSWD.epw,36.00,106.27
0,Yanchi,CHN,CHN_Ningxia.Hui.Yanchi.537230_CSWD.epw,37.80,107.38
0,Yinchuan,CHN,CHN_Ningxia.Hui.Yinchuan.536140_CSWD.epw,38.48,106.22
0,Daqaidam,CHN,CHN_Qinghai.Daqaidam.527130_CSWD.epw,37.85,95.37
0,Darlag,CHN,CHN_Qinghai.Darlag.560460_CSWD.epw,33.75,99.65
0,Dulan Us,CHN,CHN_Qinghai.Dulan.Us.528360_CSWD.epw,36.30,98.10
0,Gangca,CHN,CHN_Qinghai.Gangca.527540_CSWD.epw,37.33,100.13
0,Golmud,CHN,CHN_Qinghai.Golmud.528180_CSWD.epw,36.42,94.90
0,DELINGHA,CHN,CHN_Qinghai.Haixi.Delingha.527370_SWERA.epw,37.37,97.37
0,Lenghu,CHN,CHN_Qinghai.Lenghu.526020_CSWD.epw,38.75,93.33
0,Madoi,CHN,CHN_Qinghai.Madoi.560330_CSWD.epw,34.92,98.22
0,MADOI/HUANGHEYAN,CHN,CHN_Qinghai.Madoi.560330_SWERA.epw,34.92,98.22
0,MANGNAI,CHN,CHN_Qinghai.Mangnai.518860_SWERA.epw,38.25,90.85
0,Minhe,CHN,CHN_Qinghai.Minhe.528760_CSWD.epw,36.32,102.85
0,Nangqen,CHN,CHN_Qinghai.Nangqen.561250_CSWD.epw,32.20,96.48
0,Qumarleb,CHN,CHN_Qinghai.Qumarleb.560210_CSWD.epw,34.13,95.78
0,Tuotuohe,CHN,CHN_Qinghai.Tuotuohe.560040_CSWD.epw,34.22,92.43
0,TUOTUOHE/TANGGULASH,CHN,CHN_Qinghai.Tuotuohe.560040_SWERA.epw,34.22,92.43
0,Xinghai,CHN,CHN_Qinghai.Xinghai.529430_CSWD.epw,35.58,99.98
0,Xining,CHN,CHN_Qinghai.Xining.528660_CSWD.epw,36.72,101.75
0,Yushu,CHN,CHN_Qinghai.Yushu.560290_CSWD.epw,33.02,97.02
0,ANKANG/XING'AN,CHN,CHN_Shaanxi.Ankang.572450_SWERA.epw,32.72,109.03
0,Ankangan,CHN,CHN_Shaanxi.Ankangan.572450_CSWD.epw,32.72,109.03
0,BAOJI,CHN,CHN_Shaanxi.Baoji.570160_SWERA.epw,34.35,107.13
0,Dingbian,CHN,CHN_Shaanxi.Dingbian.537250_CSWD.epw,37.58,107.58
0,Hanzhong,CHN,CHN_Shaanxi.Hanzhong.571270_CSWD.epw,33.07,107.03
0,Luochuan,CHN,CHN_Shaanxi.Luochuan.539420_CSWD.epw,35.82,109.50
0,Suide,CHN,CHN_Shaanxi.Suide.537540_CSWD.epw,37.50,110.22
0,Xian,CHN,CHN_Shaanxi.Xian.570360_CSWD.epw,34.30,108.93
0,Yanan,CHN,CHN_Shaanxi.Yanan.538450_CSWD.epw,36.60,109.50
0,Yulin,CHN,CHN_Shaanxi.Yulin.536460_CSWD.epw,38.23,109.70
0,YULIN,CHN,CHN_Shaanxi.Yulin.536460_SWERA.epw,38.23,109.70
0,Chaoyang,CHN,CHN_Shandong.Chaoyang.548080_CSWD.epw,36.23,115.67
0,Chengshantou,CHN,CHN_Shandong.Chengshantou.547760_CSWD.epw,37.40,122.68
0,Huimin Xian,CHN,CHN_Shandong.Huimin.Xian.547250_CSWD.epw,37.48,117.53
0,Jinan,CHN,CHN_Shandong.Jinan.548230_CSWD.epw,36.60,117.05
0,Juxian,CHN,CHN_Shandong.Juxian.549360_CSWD.epw,35.58,118.83
0,Longkou,CHN,CHN_Shandong.Longkou.547530_CSWD.epw,37.62,120.32
0,Weifang,CHN,CHN_Shandong.Weifang.548430_CSWD.epw,36.75,119.18
0,Yanzhou,CHN,CHN_Shandong.Yanzhou.549160_CSWD.epw,35.57,116.85
0,Shanghai,CHN,CHN_Shanghai.Shanghai.583620_CSWD.epw,31.40,121.45
0,SHANGHAI/HONGQIAO,CHN,CHN_Shanghai.Shanghai.583620_SWERA.epw,31.17,121.43
0,SHANGHAI,CHN,CHN_Shanghai.Shanghai.583670_IWEC.epw,31.17,121.43
0,Datong,CHN,CHN_Shanxi.Datong.534870_CSWD.epw,40.10,113.33
0,Houma,CHN,CHN_Shanxi.Houma.539630_CSWD.epw,35.65,111.37
0,Jiexiu,CHN,CHN_Shanxi.Jiexiu.538630_CSWD.epw,37.03,111.92
0,Taiyuan,CHN,CHN_Shanxi.Taiyuan.537720_CSWD.epw,37.78,112.55
0,Yuanping,CHN,CHN_Shanxi.Yuanping.536730_CSWD.epw,38.73,112.72
0,Yuncheng,CHN,CHN_Shanxi.Yuncheng.539590_CSWD.epw,35.05,111.05
0,Yushe,CHN,CHN_Shanxi.Yushe.537870_CSWD.epw,37.07,112.98
0,Barkam,CHN,CHN_Sichuan.Barkam.561720_CSWD.epw,31.90,102.23
0,BATANG,CHN,CHN_Sichuan.Batang.562470_SWERA.epw,30.00,99.10
0,Chengdu,CHN,CHN_Sichuan.Chengdu.562940_CSWD.epw,30.67,104.02
0,CHENGDU,CHN,CHN_Sichuan.Chengdu.562940_SWERA.epw,30.67,104.02
0,Garze,CHN,CHN_Sichuan.Garze.561460_CSWD.epw,31.62,100.00
0,Garze,CHN,CHN_Sichuan.Garze.561460_SWERA.epw,31.62,100.00
0,Hongyuan,CHN,CHN_Sichuan.Hongyuan.561730_CSWD.epw,32.80,102.55
0,Huili,CHN,CHN_Sichuan.Huili.566710_CSWD.epw,26.65,102.25
0,HUILI,CHN,CHN_Sichuan.Huili.566710_SWERA.epw,26.65,102.25
0,Jiulong,CHN,CHN_Sichuan.Jiulong.564620_CSWD.epw,29.00,101.50
0,Leshan,CHN,CHN_Sichuan.Leshan.563860_CSWD.epw,29.57,103.75
0,Litang,CHN,CHN_Sichuan.Litang.562570_CSWD.epw,30.00,100.27
0,Luzhou,CHN,CHN_Sichuan.Luzhou.576020_CSWD.epw,28.88,105.43
0,Mianyang,CHN,CHN_Sichuan.Mianyang.561960_CSWD.epw,31.45,104.73
0,Nanchong,CHN,CHN_Sichuan.Nanchong.574110_CSWD.epw,30.78,106.10
0,Songpan,CHN,CHN_Sichuan.Songpan.561820_CSWD.epw,32.65,103.57
0,Wanyuan,CHN,CHN_Sichuan.Wanyuan.572370_CSWD.epw,32.07,108.03
0,Xichang,CHN,CHN_Sichuan.Xichang.565710_CSWD.epw,27.90,102.27
0,Yibin,CHN,CHN_Sichuan.Yibin.564920_CSWD.epw,28.80,104.60
0,Tianjin,CHN,CHN_Tianjin.Tianjin.545270_CSWD.epw,39.08,117.07
0,Lhasa,CHN,CHN_Tibet.Lhasa.555910_CSWD.epw,29.67,91.13
0,LHASA,CHN,CHN_Tibet.Lhasa.555910_SWERA.epw,29.67,91.13
0,Nyingchi,CHN,CHN_Tibet.Nyingchi.563120_CSWD.epw,29.67,94.33
0,NYINGCHI,CHN,CHN_Tibet.Nyingchi.563120_SWERA.epw,29.57,94.47
0,PAGRI,CHN,CHN_Tibet.Pagri.557730_SWERA.epw,27.73,89.08
0,Qamdo,CHN,CHN_Tibet.Qamdo.561370_CSWD.epw,31.15,97.17
0,URUMQI,CHN,CHN_Xinjiang.Urgur.Urumqi.514630_IWEC.epw,43.83,87.53
0,Aksu,CHN,CHN_Xinjiang.Uygur.Aksu.516280_CSWD.epw,41.17,80.23
0,Altay,CHN,CHN_Xinjiang.Uygur.Altay.510760_CSWD.epw,47.73,88.08
0,ALTAY,CHN,CHN_Xinjiang.Uygur.Altay.510760_SWERA.epw,47.73,88.08
0,Bachu,CHN,CHN_Xinjiang.Uygur.Bachu.517160_CSWD.epw,39.80,78.57
0,Fuyun,CHN,CHN_Xinjiang.Uygur.Fuyun.510870_CSWD.epw,46.98,89.52
0,Hami,CHN,CHN_Xinjiang.Uygur.Hami.522030_CSWD.epw,42.82,93.52
0,ALGIERS,DZA,DZA_Algiers.603900_IWEC.epw,36.72,3.25
0,Al Minya,EGY,EGY_Al.Minya.623870_ETMY.epw,28.08,30.73
0,Alexandria,EGY,EGY_Alexandria.623180_ETMY.epw,31.20,29.95
0,Aswan,EGY,EGY_Aswan.624140_ETMY.epw,23.97,32.78
0,ASWAN,EGY,EGY_Aswan.624140_IWEC.epw,23.97,32.78
0,Asyut,EGY,EGY_Asyut.623930_ETMY.epw,27.05,31.02
0,CAIRO,EGY,EGY_Cairo.623660_IWEC.epw,30.13,31.40
0,Cairo Intl Airport,EGY,EGY_Cairo.Intl.Airport.623660_ETMY.epw,30.13,31.40
0,El Arish,EGY,EGY_El.Arish.623370_ETMY.epw,31.08,33.82
0,Helwan,EGY,EGY_Helwan.623780_ETMY.epw,29.87,31.33
0,Hurghada,EGY,EGY_Hurghada.624630_ETMY.epw,27.15,33.72
0,Ismailia,EGY,EGY_Ismailia.624400_ETMY.epw,30.60,32.25
0,Kharga,EGY,EGY_Kharga.624350_ETMY.epw,25.45,30.53
0,Luxor,EGY,EGY_Luxor.624050_ETMY.epw,25.67,32.70
0,ADDIS_ABABA/BOLE,ETH,ETH_Addis.Ababa-Bole.634500_SWERA.epw,8.98,38.80
0,AWASSA_(LAKE),ETH,ETH_Awassa.634600_SWERA.epw,7.07,38.05
0,BAHAR_DAR,ETH,ETH_Bahar.Dar.633320_SWERA.epw,11.60,37.40
0,COMBOLCHA/DESSIE,ETH,ETH_Combolcha.633330_SWERA.epw,11.08,39.72
0,DEBRE_MARCOS,ETH,ETH_Debre.Marcos.633340_SWERA.epw,10.35,37.72
0,DIRE_DAWA_(MIL/CIV),ETH,ETH_Dire.Dawa.634710_SWERA.epw,9.60,41.87
0,GONDAR,ETH,ETH_Gondar.633310_SWERA.epw,12.53,37.43
0,JIMMA,ETH,ETH_Jimma.634020_SWERA.epw,7.67,36.83
0,METEHARA,ETH,ETH_Metehara.634530_SWERA.epw,8.83,39.78
0,ACCRA/KOTOKA_INTL,GHA,GHA_Accra.654720_SWERA.epw,5.60,-0.17
0,ELDORET,KEN,KEN_Eldoret.636860_SWERA.epw,0.53,35.28
0,EMBU,KEN,KEN_Embu.637200_SWERA.epw,-0.50,37.45
0,GARISSA,KEN,KEN_Garissa.637230_SWERA.epw,-0.47,39.63
0,KAKAMEGA,KEN,KEN_Kakamega.636870_SWERA.epw,0.28,34.78
0,KISII            _,KEN,KEN_Kisii.637090_SWERA.epw,-0.67,34.78
0,KISUMU,KEN,KEN_Kisumu.637080_SWERA.epw,-0.10,34.75
0,Kitale,KEN,KEN_Kitale.636610_SWERA.epw,1.02,35.00
0,LAMU/MANDA_ISLAND,KEN,KEN_Lamu-Manda.Island.637720_SWERA.epw,-2.27,40.83
0,LODWAR,KEN,KEN_Lodwar.636120_SWERA.epw,3.12,35.62
0,MAKINDU,KEN,KEN_Makindu.637660_SWERA.epw,-2.28,37.83
0,MALINDI,KEN,KEN_Malindi.637990_SWERA.epw,-3.23,40.10
0,MANDERA,KEN,KEN_Mandera.636240_SWERA.epw,3.93,41.87
0,MARSABIT,KEN,KEN_Marsabit.636410_SWERA.epw,2.30,37.90
0,MERU,KEN,KEN_Meru.636950_SWERA.epw,0.08,37.65
0,MOMBASA/MOI_INTL,KEN,KEN_Mombasa-Moi.638200_SWERA.epw,-4.03,39.62
0,MOYALE_LOWER_(ODA),KEN,KEN_Moyale.636190_SWERA.epw,3.53,39.05
0,NAIROBI/DAGORETTI_,KEN,KEN_Nairobi-Dagoretti.637410_SWERA.epw,-1.30,36.75
0,NAIROBI/JOMO_KENYAT,KEN,KEN_Nairobi-Kenyatta.637400_SWERA.epw,-1.32,36.92
0,NAIROBI/WILSON,KEN,KEN_Nairobi-Wilson.637420_SWERA.epw,-1.32,36.82
0,NAIROBI,KEN,KEN_Nairobi.637400_IWEC.epw,-1.32,36.92
0,NAKURU,KEN,KEN_Nakuru.637140_SWERA.epw,-0.27,36.10
0,NAROK,KEN,KEN_Narok.637370_SWERA.epw,-1.13,35.83
0,NYERI,KEN,KEN_Nyeri.637170_SWERA.epw,-0.50,36.97
0,VOI,KEN,KEN_Voi.637930_SWERA.epw,-3.40,38.57
0,TRIPOLI,LBY,LBY_Tripoli.620100_IWEC.epw,32.67,13.15
0,CASABLANCA/NOUASSER,MAR,MAR_Casablanca.Nouasser.601560_IWEC.epw,33.37,-7.58
0,ANTANANARIVO,MDG,MDG_Antananarivo.670830_IWEC.epw,-18.80,47.48
0,DAKAR,SEN,SEN_Dakar.616410_IWEC.epw,14.73,-17.50
0,TUNIS,TUN,TUN_Tunis.607150_IWEC.epw,36.83,10.23
0,CAPE TOWN,ZAF,ZAF_Cape.Town.688160_IWEC.epw,-33.98,18.60
0,JOHANNESBURG,ZAF,ZAF_Johannesburg.683680_IWEC.epw,-26.13,28.23
0,HARARE,ZWE,ZWE_Harare.677750_IWEC.epw,-17.92,31.13
